CCSDS_OEM_VERS = 1.0
CREATION_DATE  = 2017-05-11T11:14:17
ORIGINATOR     = GMAT USER

META_START
OBJECT_NAME          = MOPSSat_alt_35785_km_RAAN_90_053
OBJECT_ID            = SatId
CENTER_NAME          = Earth
REF_FRAME            = EME2000
TIME_SYSTEM          = UTC
START_TIME           = 2017-01-01T00:00:00.000
USEABLE_START_TIME   = 2017-01-01T00:00:00.000
USEABLE_STOP_TIME    = 2017-01-02T00:00:00.000
STOP_TIME            = 2017-01-02T00:00:00.000
INTERPOLATION        = Lagrange
INTERPOLATION_DEGREE = 7 
META_STOP


                                                                                   

2017-01-01T13:45:00.000   1.902502715735379e+04  -3.762640418401366e+04   4.718692602574259e-02   2.743857342912525e+00   1.387623467514200e+00  -1.103532661822765e-04
2017-01-01T13:45:10.000   1.905246067023664e+04  -3.761251794526350e+04   4.608315619568003e-02   2.742844882861287e+00   1.389624104864229e+00  -1.104006869901057e-04
2017-01-01T13:45:20.000   1.907988405119377e+04  -3.759861170384842e+04   4.497891241402478e-02   2.741830963936079e+00   1.391624003456356e+00  -1.104480567386614e-04
2017-01-01T13:45:30.000   1.910729728542401e+04  -3.758468546727068e+04   4.387419520030087e-02   2.740815586683673e+00   1.393623162210969e+00  -1.104953753761311e-04
2017-01-01T13:45:40.000   1.913470035806625e+04  -3.757073924307671e+04   4.276900507718624e-02   2.739798751654045e+00   1.395621580044087e+00  -1.105426428506071e-04
2017-01-01T13:45:50.000   1.916209325482823e+04  -3.755677303853686e+04   4.166334254515573e-02   2.738780459377057e+00   1.397619255913208e+00  -1.105898591111551e-04
2017-01-01T13:46:00.000   1.918947596135603e+04  -3.754278686096617e+04   4.055720810789772e-02   2.737760710385824e+00   1.399616188771338e+00  -1.106370241067424e-04
2017-01-01T13:46:10.000   1.921684846339700e+04  -3.752878071764179e+04   3.945060226575781e-02   2.736739505210696e+00   1.401612377578864e+00  -1.106841377865141e-04
2017-01-01T13:46:20.000   1.924421074636147e+04  -3.751475461602429e+04   3.834352553335470e-02   2.735716844395400e+00   1.403607821271599e+00  -1.107312000990511e-04
2017-01-01T13:46:30.000   1.927156279568465e+04  -3.750070856357535e+04   3.723597842505160e-02   2.734692728483748e+00   1.405602518787165e+00  -1.107782109929805e-04
2017-01-01T13:46:40.000   1.929890459674313e+04  -3.748664256779979e+04   3.612796145830410e-02   2.733667158022693e+00   1.407596469058912e+00  -1.108251704168367e-04
2017-01-01T13:46:50.000   1.932623613488783e+04  -3.747255663623039e+04   3.501947515238980e-02   2.732640133561230e+00   1.409589671018316e+00  -1.108720783191036e-04
2017-01-01T13:47:00.000   1.935355739545875e+04  -3.745845077641889e+04   3.391052002776099e-02   2.731611655649732e+00   1.411582123596058e+00  -1.109189346482554e-04
2017-01-01T13:47:10.000   1.938086836381763e+04  -3.744432499591909e+04   3.280109660471788e-02   2.730581724838734e+00   1.413573825724404e+00  -1.109657393528056e-04
2017-01-01T13:47:20.000   1.940816902536392e+04  -3.743017930228019e+04   3.169120540281486e-02   2.729550341678424e+00   1.415564776338367e+00  -1.110124923813543e-04
2017-01-01T13:47:30.000   1.943545936556615e+04  -3.741601370302869e+04   3.058084693952048e-02   2.728517506717343e+00   1.417554974377999e+00  -1.110591936826218e-04
2017-01-01T13:47:40.000   1.946273936987932e+04  -3.740182820571186e+04   2.947002173360412e-02   2.727483220505546e+00   1.419544418782367e+00  -1.111058432053147e-04
2017-01-01T13:47:50.000   1.949000902410340e+04  -3.738762281770915e+04   2.835873029045338e-02   2.726447483580848e+00   1.421533108515691e+00  -1.111524408987197e-04
2017-01-01T13:48:00.000   1.951726831394870e+04  -3.737339754646029e+04   2.724697311985578e-02   2.725410296485469e+00   1.423521042535656e+00  -1.111989867119792e-04
2017-01-01T13:48:10.000   1.954451722520026e+04  -3.735915239937946e+04   2.613475072928310e-02   2.724371659759757e+00   1.425508219805395e+00  -1.112454805943666e-04
2017-01-01T13:48:20.000   1.957175574308068e+04  -3.734488738418803e+04   2.502206364989206e-02   2.723331573966464e+00   1.427494639247022e+00  -1.112919224942137e-04
2017-01-01T13:48:30.000   1.959898385288741e+04  -3.733060250858180e+04   2.390891241052719e-02   2.722290039666476e+00   1.429480299788110e+00  -1.113383123599839e-04
2017-01-01T13:48:40.000   1.962620153982811e+04  -3.731629778031678e+04   2.279529754442615e-02   2.721247057425070e+00   1.431465200349687e+00  -1.113846501399956e-04
2017-01-01T13:48:50.000   1.965340878945653e+04  -3.730197320698293e+04   2.168121957149054e-02   2.720202627795423e+00   1.433449339878014e+00  -1.114309357831546e-04
2017-01-01T13:49:00.000   1.968060558731260e+04  -3.728762879619050e+04   2.056667901290752e-02   2.719156751332179e+00   1.435432717318348e+00  -1.114771692383510e-04
2017-01-01T13:49:10.000   1.970779191900552e+04  -3.727326455552712e+04   1.945167638778011e-02   2.718109428588345e+00   1.437415331620996e+00  -1.115233504545973e-04
2017-01-01T13:49:20.000   1.973496777018095e+04  -3.725888049257323e+04   1.833621221440606e-02   2.717060660116400e+00   1.439397181738925e+00  -1.115694793809808e-04
2017-01-01T13:49:30.000   1.976213312650644e+04  -3.724447661491129e+04   1.722028701092823e-02   2.716010446468971e+00   1.441378266626694e+00  -1.116155559666305e-04
2017-01-01T13:49:40.000   1.978928797363888e+04  -3.723005293014302e+04   1.610390129666944e-02   2.714958788200089e+00   1.443358585238089e+00  -1.116615801606659e-04
2017-01-01T13:49:50.000   1.981643229720875e+04  -3.721560944589625e+04   1.498705559273043e-02   2.713905685865691e+00   1.445338136524965e+00  -1.117075519121609e-04
2017-01-01T13:50:00.000   1.984356608278882e+04  -3.720114616984333e+04   1.386975042333691e-02   2.712851140024964e+00   1.447316919434973e+00  -1.117534711701001e-04
2017-01-01T13:50:10.000   1.987068931597637e+04  -3.718666310965669e+04   1.275198631243180e-02   2.711795151237091e+00   1.449294932917549e+00  -1.117993378835150e-04
2017-01-01T13:50:20.000   1.989780198203682e+04  -3.717216027320147e+04   1.163376379844838e-02   2.710737720075322e+00   1.451272175897923e+00  -1.118451520008870e-04
2017-01-01T13:50:30.000   1.992490406633578e+04  -3.715763766830254e+04   1.051508341641792e-02   2.709678847109956e+00   1.453248647308639e+00  -1.118909134708733e-04
2017-01-01T13:50:40.000   1.995199555417829e+04  -3.714309530283079e+04   9.395945704617966e-03   2.708618532914658e+00   1.455224346077817e+00  -1.119366222420352e-04
2017-01-01T13:50:50.000   1.997907643143213e+04  -3.712853318436893e+04   8.276351178834464e-03   2.707556778042076e+00   1.457199271174617e+00  -1.119822782638929e-04
2017-01-01T13:51:00.000   2.000614668390594e+04  -3.711395132054478e+04   7.156300358030064e-03   2.706493583048157e+00   1.459173421563889e+00  -1.120278814858723e-04
2017-01-01T13:51:10.000   2.003320629749043e+04  -3.709934971895606e+04   6.035793758536382e-03   2.705428948486643e+00   1.461146796216465e+00  -1.120734318575459e-04
2017-01-01T13:51:20.000   2.006025525780641e+04  -3.708472838735678e+04   4.914831908502639e-03   2.704362874922678e+00   1.463119394083492e+00  -1.121189293280267e-04
2017-01-01T13:51:30.000   2.008729355046645e+04  -3.707008733351966e+04   3.793415337186053e-03   2.703295362922769e+00   1.465091214115520e+00  -1.121643738464238e-04
2017-01-01T13:51:40.000   2.011432116107436e+04  -3.705542656523499e+04   2.671544574926701e-03   2.702226413054706e+00   1.467062255262458e+00  -1.122097653618353e-04
2017-01-01T13:51:50.000   2.014133807496674e+04  -3.704074609045425e+04   1.549220163994486e-03   2.701156025898034e+00   1.469032516454725e+00  -1.122551038229334e-04
2017-01-01T13:52:00.000   2.016834427756163e+04  -3.702604591709775e+04   4.264426440023844e-04   2.700084202030019e+00   1.471001996628682e+00  -1.123003891785306e-04
2017-01-01T13:52:10.000   2.019533975422099e+04  -3.701132605313002e+04  -6.967874423551491e-04   2.699010942031161e+00   1.472970694716601e+00  -1.123456213773559e-04
2017-01-01T13:52:20.000   2.022232449086002e+04  -3.699658650622782e+04  -1.820469574646843e-03   2.697936246460974e+00   1.474938609691095e+00  -1.123908003690589e-04
2017-01-01T13:52:30.000   2.024929847333772e+04  -3.698182728411191e+04  -2.944603229364719e-03   2.696860115882181e+00   1.476905740520683e+00  -1.124359261032054e-04
2017-01-01T13:52:40.000   2.027626168759494e+04  -3.696704839447252e+04  -4.069187885644900e-03   2.695782550855278e+00   1.478872086179851e+00  -1.124809985295027e-04
2017-01-01T13:52:50.000   2.030321411930362e+04  -3.695224984515787e+04  -5.194223010765530e-03   2.694703551952287e+00   1.480837645623473e+00  -1.125260175972258e-04
2017-01-01T13:53:00.000   2.033015575412767e+04  -3.693743164403496e+04  -6.319708070896246e-03   2.693623119746594e+00   1.482802417805838e+00  -1.125709832556412e-04
2017-01-01T13:53:10.000   2.035708657772230e+04  -3.692259379898843e+04  -7.445642531123083e-03   2.692541254812873e+00   1.484766401680599e+00  -1.126158954540102e-04
2017-01-01T13:53:20.000   2.038400657547659e+04  -3.690773631806585e+04  -8.572025844563071e-03   2.691457957737680e+00   1.486729596182002e+00  -1.126607541411481e-04
2017-01-01T13:53:30.000   2.041091573286082e+04  -3.689285920928304e+04  -9.698857467002983e-03   2.690373229105261e+00   1.488692000250216e+00  -1.127055592660153e-04
2017-01-01T13:53:40.000   2.043781403528697e+04  -3.687796248070200e+04  -1.082613685103068e-02   2.689287069503215e+00   1.490653612821152e+00  -1.127503107774798e-04
2017-01-01T13:53:50.000   2.046470146872577e+04  -3.686304614008893e+04  -1.195386347189904e-02   2.688199479497593e+00   1.492614432871475e+00  -1.127950086253604e-04
2017-01-01T13:54:00.000   2.049157801908798e+04  -3.684811019525690e+04  -1.308203680160094e-02   2.687110459657850e+00   1.494574459373473e+00  -1.128396527593805e-04
